*******************************************************************************
Ephemeris / PORT_LOGIN Sat Apr 12 20:36:00 2014 Pasadena, USA    / Horizons
*******************************************************************************
Target body name: 1221 Amor (1932 EA1)            {source: JPL#52}
Center body name: Earth (399)                     {source: DE-0431LE-0431}
Center-site name: GEOCENTRIC
*******************************************************************************
Start time      : A.D. 2014-Apr-12 00:00:00.0000 UT
Stop  time      : A.D. 2014-Apr-14 00:00:00.0000 UT
Step-size       : 10 minutes
*******************************************************************************
Target pole/equ : No model available
Target radii    : 0.5 km
Center geodetic : 0.00000000,0.00000000,0.0000000 {E-lon(deg),Lat(deg),Alt(km)}
Center cylindric: 0.00000000,0.00000000,0.0000000 {E-lon(deg),Dxy(km),Dz(km)}
Center pole/equ : High-precision EOP model        {East-longitude +}
Center radii    : 6378.1 x 6378.1 x 6356.8 km     {Equator, meridian, pole}
Target primary  : Sun
Vis. interferer : MOON (R_eq= 1737.400) km        {source: DE-0431LE-0431}
Rel. light bend : Sun, EARTH                      {source: DE-0431LE-0431}
Rel. lght bnd GM: 1.3271E+11, 3.9860E+05 km^3/s^2
Small-body perts: Yes                             {source: SB431-BIG16}
Atmos refraction: NO (AIRLESS)
RA format       : DEG
Time format     : BOTH
EOP file        : eop.140411.p140703
EOP coverage    : DATA-BASED 1962-JAN-20 TO 2014-APR-11. PREDICTS-> 2014-JUL-02
Units conversion: 1 au= 149597870.700 km, c= 299792.458 km/s, 1 day= 86400.0 s
Table cut-offs 1: Elevation (-90.0deg=NO ),Airmass (>38.000=NO), Daylight (NO )
Table cut-offs 2: Solar Elongation (  0.0,180.0=NO ),Local Hour Angle( 0.0=NO )
Table format    : Comma Separated Values (spreadsheet)
*******************************************************************************
Initial FK5/J2000.0 heliocentric ecliptic osculating elements (au, days, deg.):
  EPOCH=  2449635.5 ! 1994-Oct-10.00 (CT)          Residual RMS= .6749
   EC= .4354049608004371   QR= 1.083830849346376   TP= 2449180.879446195
   OM= 171.5373984747221   W=  26.2962289268316    IN= 11.89108666831778
Asteroid physical parameters (km, seconds, rotational period in hours):
   GM= n.a.                RAD= .500               ROTPER= n.a.
   H= 17.7                 G= .150                 B-V= n.a.
                           ALBEDO= n.a.            STYP= n.a.
**********************************************************************************************
 Date__(UT)__HR:MN, Date_________JDUT, , ,R.A._(ICRF/J2000.0), DEC_(ICRF/J2000.0),   1-way_LT,
**********************************************************************************************
$$SOE
 2014-Apr-12 00:00, 2456759.500000000, , , 58.1560279, 11.2648645,  22.618857,
 2014-Apr-12 00:10, 2456759.506944444, , , 58.1592267, 11.2657272,  22.618989,
 2014-Apr-12 00:20, 2456759.513888889, , , 58.1624256, 11.2665899,  22.619121,
 2014-Apr-12 00:30, 2456759.520833333, , , 58.1656246, 11.2674525,  22.619253,
 2014-Apr-12 00:40, 2456759.527777778, , , 58.1688238, 11.2683151,  22.619384,
 2014-Apr-12 00:50, 2456759.534722222, , , 58.1720231, 11.2691776,  22.619516,
 2014-Apr-12 01:00, 2456759.541666667, , , 58.1752226, 11.2700401,  22.619648,
 2014-Apr-12 01:10, 2456759.548611111, , , 58.1784222, 11.2709025,  22.619779,
 2014-Apr-12 01:20, 2456759.555555556, , , 58.1816219, 11.2717649,  22.619911,
 2014-Apr-12 01:30, 2456759.562500000, , , 58.1848218, 11.2726273,  22.620043,
 2014-Apr-12 01:40, 2456759.569444444, , , 58.1880218, 11.2734896,  22.620174,
 2014-Apr-12 01:50, 2456759.576388889, , , 58.1912220, 11.2743519,  22.620306,
 2014-Apr-12 02:00, 2456759.583333333, , , 58.1944224, 11.2752141,  22.620437,
 2014-Apr-12 02:10, 2456759.590277778, , , 58.1976228, 11.2760763,  22.620568,
 2014-Apr-12 02:20, 2456759.597222222, , , 58.2008234, 11.2769385,  22.620700,
 2014-Apr-12 02:30, 2456759.604166667, , , 58.2040242, 11.2778006,  22.620831,
 2014-Apr-12 02:40, 2456759.611111111, , , 58.2072251, 11.2786626,  22.620962,
 2014-Apr-12 02:50, 2456759.618055556, , , 58.2104261, 11.2795246,  22.621093,
 2014-Apr-12 03:00, 2456759.625000000, , , 58.2136273, 11.2803866,  22.621224,
 2014-Apr-12 03:10, 2456759.631944444, , , 58.2168286, 11.2812485,  22.621355,
 2014-Apr-12 03:20, 2456759.638888889, , , 58.2200301, 11.2821104,  22.621486,
 2014-Apr-12 03:30, 2456759.645833333, , , 58.2232317, 11.2829723,  22.621617,
 2014-Apr-12 03:40, 2456759.652777778, , , 58.2264335, 11.2838341,  22.621748,
 2014-Apr-12 03:50, 2456759.659722222, , , 58.2296354, 11.2846958,  22.621879,
 2014-Apr-12 04:00, 2456759.666666667, , , 58.2328374, 11.2855576,  22.622010,
 2014-Apr-12 04:10, 2456759.673611111, , , 58.2360396, 11.2864192,  22.622141,
 2014-Apr-12 04:20, 2456759.680555556, , , 58.2392420, 11.2872809,  22.622271,
 2014-Apr-12 04:30, 2456759.687500000, , , 58.2424444, 11.2881425,  22.622402,
 2014-Apr-12 04:40, 2456759.694444444, , , 58.2456471, 11.2890040,  22.622533,
 2014-Apr-12 04:50, 2456759.701388889, , , 58.2488498, 11.2898655,  22.622663,
 2014-Apr-12 05:00, 2456759.708333333, , , 58.2520527, 11.2907270,  22.622794,
 2014-Apr-12 05:10, 2456759.715277778, , , 58.2552558, 11.2915884,  22.622924,
 2014-Apr-12 05:20, 2456759.722222222, , , 58.2584590, 11.2924498,  22.623055,
 2014-Apr-12 05:30, 2456759.729166667, , , 58.2616623, 11.2933111,  22.623185,
 2014-Apr-12 05:40, 2456759.736111111, , , 58.2648658, 11.2941724,  22.623315,
 2014-Apr-12 05:50, 2456759.743055556, , , 58.2680694, 11.2950336,  22.623446,
 2014-Apr-12 06:00, 2456759.750000000, , , 58.2712732, 11.2958949,  22.623576,
 2014-Apr-12 06:10, 2456759.756944444, , , 58.2744771, 11.2967560,  22.623706,
 2014-Apr-12 06:20, 2456759.763888889, , , 58.2776811, 11.2976171,  22.623836,
 2014-Apr-12 06:30, 2456759.770833333, , , 58.2808853, 11.2984782,  22.623966,
 2014-Apr-12 06:40, 2456759.777777778, , , 58.2840897, 11.2993392,  22.624096,
 2014-Apr-12 06:50, 2456759.784722222, , , 58.2872941, 11.3002002,  22.624226,
 2014-Apr-12 07:00, 2456759.791666667, , , 58.2904988, 11.3010612,  22.624356,
 2014-Apr-12 07:10, 2456759.798611111, , , 58.2937035, 11.3019221,  22.624486,
 2014-Apr-12 07:20, 2456759.805555556, , , 58.2969084, 11.3027830,  22.624616,
 2014-Apr-12 07:30, 2456759.812500000, , , 58.3001135, 11.3036438,  22.624746,
 2014-Apr-12 07:40, 2456759.819444444, , , 58.3033187, 11.3045046,  22.624876,
 2014-Apr-12 07:50, 2456759.826388889, , , 58.3065240, 11.3053653,  22.625005,
 2014-Apr-12 08:00, 2456759.833333333, , , 58.3097295, 11.3062260,  22.625135,
 2014-Apr-12 08:10, 2456759.840277778, , , 58.3129352, 11.3070866,  22.625265,
 2014-Apr-12 08:20, 2456759.847222222, , , 58.3161409, 11.3079472,  22.625394,
 2014-Apr-12 08:30, 2456759.854166667, , , 58.3193468, 11.3088078,  22.625524,
 2014-Apr-12 08:40, 2456759.861111111, , , 58.3225529, 11.3096683,  22.625653,
 2014-Apr-12 08:50, 2456759.868055556, , , 58.3257591, 11.3105288,  22.625783,
 2014-Apr-12 09:00, 2456759.875000000, , , 58.3289655, 11.3113892,  22.625912,
 2014-Apr-12 09:10, 2456759.881944444, , , 58.3321719, 11.3122496,  22.626041,
 2014-Apr-12 09:20, 2456759.888888889, , , 58.3353786, 11.3131100,  22.626171,
 2014-Apr-12 09:30, 2456759.895833333, , , 58.3385853, 11.3139703,  22.626300,
 2014-Apr-12 09:40, 2456759.902777778, , , 58.3417923, 11.3148305,  22.626429,
 2014-Apr-12 09:50, 2456759.909722222, , , 58.3449993, 11.3156908,  22.626558,
 2014-Apr-12 10:00, 2456759.916666667, , , 58.3482065, 11.3165509,  22.626687,
 2014-Apr-12 10:10, 2456759.923611111, , , 58.3514139, 11.3174111,  22.626816,
 2014-Apr-12 10:20, 2456759.930555556, , , 58.3546214, 11.3182712,  22.626945,
 2014-Apr-12 10:30, 2456759.937500000, , , 58.3578290, 11.3191312,  22.627074,
 2014-Apr-12 10:40, 2456759.944444444, , , 58.3610368, 11.3199912,  22.627203,
 2014-Apr-12 10:50, 2456759.951388889, , , 58.3642447, 11.3208512,  22.627332,
 2014-Apr-12 11:00, 2456759.958333333, , , 58.3674528, 11.3217111,  22.627461,
 2014-Apr-12 11:10, 2456759.965277778, , , 58.3706610, 11.3225710,  22.627589,
 2014-Apr-12 11:20, 2456759.972222222, , , 58.3738693, 11.3234308,  22.627718,
 2014-Apr-12 11:30, 2456759.979166667, , , 58.3770778, 11.3242906,  22.627847,
 2014-Apr-12 11:40, 2456759.986111111, , , 58.3802865, 11.3251503,  22.627975,
 2014-Apr-12 11:50, 2456759.993055556, , , 58.3834953, 11.3260100,  22.628104,
 2014-Apr-12 12:00, 2456760.000000000, , , 58.3867042, 11.3268697,  22.628232,
 2014-Apr-12 12:10, 2456760.006944444, , , 58.3899132, 11.3277293,  22.628361,
 2014-Apr-12 12:20, 2456760.013888889, , , 58.3931225, 11.3285889,  22.628489,
 2014-Apr-12 12:30, 2456760.020833333, , , 58.3963318, 11.3294484,  22.628618,
 2014-Apr-12 12:40, 2456760.027777778, , , 58.3995413, 11.3303079,  22.628746,
 2014-Apr-12 12:50, 2456760.034722222, , , 58.4027510, 11.3311674,  22.628874,
 2014-Apr-12 13:00, 2456760.041666667, , , 58.4059607, 11.3320268,  22.629002,
 2014-Apr-12 13:10, 2456760.048611111, , , 58.4091707, 11.3328861,  22.629130,
 2014-Apr-12 13:20, 2456760.055555556, , , 58.4123807, 11.3337454,  22.629259,
 2014-Apr-12 13:30, 2456760.062500000, , , 58.4155910, 11.3346047,  22.629387,
 2014-Apr-12 13:40, 2456760.069444444, , , 58.4188013, 11.3354639,  22.629515,
 2014-Apr-12 13:50, 2456760.076388889, , , 58.4220118, 11.3363231,  22.629643,
 2014-Apr-12 14:00, 2456760.083333333, , , 58.4252225, 11.3371823,  22.629771,
 2014-Apr-12 14:10, 2456760.090277778, , , 58.4284332, 11.3380414,  22.629898,
 2014-Apr-12 14:20, 2456760.097222222, , , 58.4316442, 11.3389004,  22.630026,
 2014-Apr-12 14:30, 2456760.104166667, , , 58.4348553, 11.3397594,  22.630154,
 2014-Apr-12 14:40, 2456760.111111111, , , 58.4380665, 11.3406184,  22.630282,
 2014-Apr-12 14:50, 2456760.118055556, , , 58.4412778, 11.3414773,  22.630409,
$$EOE
**********************************************************************************************